{"type":"FeatureCollection","name":"Manito barangays — GADM 3.6","features":[{"type":"Feature","id":"0500511001","properties":{"name":"Balabagon","psgcCode":"0500511001","areaSqKm":1.57,"boundarySource":"GADM","boundaryVersion":"3.6","gadmId":"PHL.5.12.1_1"},"geometry":{"type":"Polygon","coordinates":[[[123.91294860839844,13.122050285339412],[123.9122085571289,13.122139930725098],[123.91163635253906,13.122280120849666],[123.91116333007812,13.122690200805607],[123.91079711914062,13.123029708862305],[123.91052246093761,13.123240470886344],[123.91017150878918,13.123510360717887],[123.90982055664062,13.12399959564209],[123.90982055664062,13.124679565429744],[123.9098892211914,13.125029563903865],[123.90997314453136,13.125300407409725],[123.90997314453136,13.125439643859806],[123.9098892211914,13.12578010559082],[123.90968322753906,13.126130104064941],[123.90827941894543,13.125169754028263],[123.90039062500023,13.119709968566838],[123.90129089355469,13.118530273437557],[123.90158843994152,13.117639541626033],[123.90225982666016,13.116419792175236],[123.90351867675793,13.11643028259283],[123.90444183349621,13.115090370178223],[123.90455627441406,13.11443042755127],[123.90450286865234,13.1118803024292],[123.90524291992188,13.110989570617676],[123.9068374633789,13.110659599304313],[123.90675354003918,13.109279632568416],[123.90936279296898,13.108499526977596],[123.9133987426759,13.107870101928825],[123.91322326660168,13.109140396118107],[123.91242980957043,13.110540390014762],[123.91217803955078,13.112400054931754],[123.91085815429688,13.11413955688488],[123.91088867187523,13.115739822387752],[123.91156768798828,13.117620468139762],[123.91220092773438,13.118689537048397],[123.91412353515648,13.120209693908691],[123.91297149658203,13.12178039550787],[123.91294860839844,13.122050285339412]]]}},{"type":"Feature","id":"0500511002","properties":{"name":"Balasbas","psgcCode":"0500511002","areaSqKm":1.94,"boundarySource":"GADM","boundaryVersion":"3.6","gadmId":"PHL.5.12.2_1"},"geometry":{"type":"Polygon","coordinates":[[[123.88108825683594,13.117460250854492],[123.87882995605469,13.119170188903922],[123.8774185180664,13.119429588317871],[123.87603759765636,13.119339942932186],[123.87471771240246,13.120120048523006],[123.8740005493164,13.121620178222713],[123.87143707275402,13.115550041198787],[123.87050628662121,13.113229751586971],[123.86940002441406,13.111410140991211],[123.86847686767578,13.10939025878912],[123.8690414428711,13.107760429382381],[123.86853790283226,13.10591983795166],[123.86727142333996,13.10346984863287],[123.86786651611328,13.101989746093864],[123.86775970458984,13.099749565124569],[123.86802673339855,13.098199844360408],[123.86772155761719,13.097100257873478],[123.86869812011719,13.09311962127697],[123.87303161621094,13.101949691772575],[123.88108825683594,13.117460250854492]]]}},{"type":"Feature","id":"0500511003","properties":{"name":"Bamban","psgcCode":"0500511003","areaSqKm":28.65,"boundarySource":"GADM","boundaryVersion":"3.6","gadmId":"PHL.5.12.3_1"},"geometry":{"type":"Polygon","coordinates":[[[123.88667297363293,13.038599967956486],[123.89012145996105,13.037919998169002],[123.89394378662121,13.037569999694881],[123.89568328857433,13.037810325622559],[123.90033721923828,13.038749694824219],[123.90466308593761,13.040860176086483],[123.90564727783203,13.041680335998592],[123.90807342529308,13.044210433959904],[123.91047668457031,13.047459602355957],[123.90808105468761,13.049420356750545],[123.90780639648438,13.050760269165153],[123.90801239013672,13.051699638366756],[123.90873718261719,13.053250312805233],[123.90924072265636,13.054160118103027],[123.90949249267578,13.055890083313045],[123.90888977050781,13.056909561157227],[123.9087829589846,13.058259963989258],[123.90892791748047,13.058839797973633],[123.90805816650402,13.059280395507926],[123.90728759765636,13.059430122375431],[123.9061737060548,13.06035041809082],[123.90603637695312,13.061470031738281],[123.9066162109375,13.062589645385799],[123.90619659423828,13.06394004821783],[123.90728759765636,13.064689636230469],[123.90804290771496,13.065950393676815],[123.90843200683605,13.06713962554943],[123.90920257568371,13.068510055542049],[123.909912109375,13.069560050964355],[123.9099807739259,13.07089996337902],[123.91049957275413,13.071249961853084],[123.91011810302757,13.074049949645996],[123.91027069091797,13.075719833374023],[123.91049194335938,13.077710151672477],[123.91047668457031,13.079090118408203],[123.90989685058594,13.081049919128475],[123.91021728515625,13.082099914550838],[123.91020202636719,13.08285999298107],[123.9094467163086,13.083919525146541],[123.90907287597656,13.084799766540641],[123.90849304199219,13.0862197875976],[123.90791320800781,13.086919784545842],[123.90717315673828,13.088279724121207],[123.90628814697266,13.089349746704102],[123.90646362304688,13.090470314025879],[123.9051971435548,13.09249019622797],[123.904541015625,13.09391975402832],[123.90350341796886,13.095899581909123],[123.90332794189464,13.098130226135254],[123.90273284912121,13.100359916687125],[123.90316009521484,13.102540016174373],[123.90223693847656,13.1048202514649],[123.90248870849632,13.105830192565975],[123.90396881103516,13.107110023498592],[123.90416717529297,13.107839584350643],[123.90132904052734,13.107099533081168],[123.900146484375,13.107270240783691],[123.89852905273449,13.10795974731451],[123.89671325683594,13.109640121459961],[123.89537048339844,13.111140251159668],[123.89359283447277,13.112859725952092],[123.89234924316406,13.113260269165096],[123.89012908935558,13.113010406494084],[123.88777160644531,13.114279747009277],[123.88661193847656,13.115050315856934],[123.88469696044922,13.115639686584473],[123.88343811035168,13.116519927978572],[123.88230895996105,13.11746978759777],[123.88108825683594,13.117460250854492],[123.87303161621094,13.101949691772575],[123.86869812011719,13.09311962127697],[123.8685989379884,13.091320037841797],[123.86775970458984,13.089759826660213],[123.86852264404297,13.087949752807617],[123.86844635009766,13.08405971527111],[123.86839294433605,13.082050323486385],[123.86788940429688,13.078789710998478],[123.86760711669933,13.075969696045036],[123.86840057373058,13.07376956939703],[123.86817932128918,13.072199821472168],[123.86827850341797,13.069999694824162],[123.86921691894531,13.067899703979492],[123.87254333496116,13.065870285034237],[123.87432098388683,13.065380096435547],[123.87568664550781,13.063070297241325],[123.8780975341798,13.060970306396484],[123.88037872314464,13.058039665222282],[123.88229370117199,13.056309700012264],[123.88279724121094,13.05504035949707],[123.88410186767578,13.052260398864746],[123.88667297363293,13.038599967956486]]]}},{"type":"Feature","id":"0500511004","properties":{"name":"Buyo","psgcCode":"0500511004","areaSqKm":0.59,"boundarySource":"GADM","boundaryVersion":"3.6","gadmId":"PHL.5.12.4_1"},"geometry":{"type":"Polygon","coordinates":[[[123.86853790283226,13.10591983795166],[123.8690414428711,13.107760429382381],[123.86847686767578,13.10939025878912],[123.86940002441406,13.111410140991211],[123.87050628662121,13.113229751586971],[123.87143707275402,13.115550041198787],[123.86264038085949,13.119580268859863],[123.86208343505871,13.119159698486328],[123.86853790283226,13.10591983795166]]]}},{"type":"Feature","id":"0500511005","properties":{"name":"Cabacongan","psgcCode":"0500511005","areaSqKm":3.08,"boundarySource":"GADM","boundaryVersion":"3.6","gadmId":"PHL.5.12.5_1"},"geometry":{"type":"Polygon","coordinates":[[[123.81302642822266,13.057319641113338],[123.81298065185547,13.0555295944215],[123.81256103515625,13.054639816284293],[123.81221008300781,13.054229736328125],[123.81172943115246,13.054229736328125],[123.81101989746094,13.054229736328125],[123.81067657470703,13.05410003662115],[123.81159973144531,13.051790237426758],[123.8610610961914,13.041609764099121],[123.86459350585949,13.041930198669377],[123.87352752685558,13.04216003417963],[123.81302642822266,13.057319641113338]]]}},{"type":"Feature","id":"0500511006","properties":{"name":"Cabit","psgcCode":"0500511006","areaSqKm":6.71,"boundarySource":"GADM","boundaryVersion":"3.6","gadmId":"PHL.5.12.6_1"},"geometry":{"type":"Polygon","coordinates":[[[123.91857147216808,13.0787096023559],[123.9201889038086,13.084859848022461],[123.92381286621094,13.09496021270752],[123.92684173583984,13.100069999694824],[123.92962646484386,13.1039400100708],[123.9317092895509,13.108160018920898],[123.93489074707031,13.113340377807674],[123.93701171875023,13.116100311279297],[123.9392318725586,13.117540359497013],[123.93997192382812,13.118100166320858],[123.9398880004884,13.118200302123967],[123.9395980834961,13.118499755859375],[123.93936920166027,13.118789672851676],[123.93907928466797,13.119009971618652],[123.93875885009777,13.11929035186779],[123.93839263916027,13.119669914245549],[123.93795776367188,13.120050430297852],[123.9374237060548,13.120289802551213],[123.93688964843761,13.12051010131836],[123.93633270263672,13.120619773864803],[123.93583679199219,13.120829582214355],[123.93536376953136,13.121080398559627],[123.93482971191406,13.121259689330998],[123.93425750732422,13.121370315551758],[123.93370056152344,13.121470451355037],[123.93324279785168,13.121760368347111],[123.93274688720703,13.121990203857422],[123.93199157714844,13.121859550476131],[123.9313735961914,13.1219997406007],[123.93086242675781,13.122269630432243],[123.93042755126953,13.122619628906364],[123.92999267578136,13.122759819030762],[123.92957305908226,13.12273979187023],[123.92913055419922,13.122619628906364],[123.92864990234386,13.122469902038688],[123.92819213867188,13.122079849243278],[123.92749023437511,13.122079849243278],[123.92581176757824,13.121399879455566],[123.92469024658214,13.121259689330998],[123.92385101318382,13.121399879455566],[123.9229965209961,13.121829986572266],[123.92188262939453,13.121549606323299],[123.91996765136719,13.121120452880916],[123.91960906982422,13.121109962463493],[123.91921997070312,13.121109962463493],[123.91877746582043,13.121139526367188],[123.91828918457031,13.121270179748592],[123.91768646240234,13.121419906616325],[123.91710662841797,13.121620178222713],[123.91651916503906,13.121669769287166],[123.91597747802734,13.121689796447868],[123.91549682617199,13.121769905090446],[123.9151077270509,13.121910095214844],[123.9147415161134,13.12193965911871],[123.91442108154297,13.121950149536133],[123.91412353515648,13.12193965911871],[123.91380310058605,13.121950149536133],[123.91294860839844,13.122050285339412],[123.91297149658203,13.12178039550787],[123.91412353515648,13.120209693908691],[123.91220092773438,13.118689537048397],[123.91156768798828,13.117620468139762],[123.91088867187523,13.115739822387752],[123.91085815429688,13.11413955688488],[123.91217803955078,13.112400054931754],[123.91242980957043,13.110540390014762],[123.91322326660168,13.109140396118107],[123.9133987426759,13.107870101928825],[123.91293334960938,13.107330322265739],[123.9137191772461,13.106590270996207],[123.9140090942384,13.10531044006359],[123.91454315185558,13.10391998291027],[123.91417694091808,13.103019714355469],[123.91409301757812,13.102149963378963],[123.91429138183594,13.101460456848145],[123.91383361816406,13.100560188293514],[123.91419982910168,13.099499702453556],[123.91423797607422,13.098190307617301],[123.91531372070324,13.09605979919445],[123.91590118408214,13.094820022583121],[123.91751098632812,13.092289924621582],[123.9177703857423,13.090869903564567],[123.91758728027355,13.089349746704102],[123.91649627685547,13.08788013458252],[123.91755676269554,13.085909843444767],[123.91857147216808,13.0787096023559]]]}},{"type":"Feature","id":"0500511007","properties":{"name":"Cawayan","psgcCode":"0500511007","areaSqKm":13.29,"boundarySource":"GADM","boundaryVersion":"3.6","gadmId":"PHL.5.12.7_1"},"geometry":{"type":"Polygon","coordinates":[[[123.87352752685558,13.04216003417963],[123.87478637695312,13.041919708251953],[123.87583923339855,13.041700363159293],[123.87906646728527,13.040920257568303],[123.88667297363293,13.038599967956486],[123.88410186767578,13.052260398864746],[123.85674285888683,13.061759948730582],[123.82492828369152,13.073829650878906],[123.82447814941429,13.073630332946777],[123.82411193847668,13.073329925537053],[123.82376098632824,13.073080062866268],[123.82334136962913,13.072879791259822],[123.82274627685547,13.072870254516715],[123.8221435546875,13.072950363159293],[123.821533203125,13.072660446166992],[123.82127380371105,13.071999549865723],[123.82142639160179,13.071379661560059],[123.82169342041027,13.07096004486084],[123.82195281982422,13.070650100708008],[123.8221435546875,13.070320129394588],[123.8222122192384,13.069930076599235],[123.82221984863293,13.06951045989996],[123.82218933105491,13.069129943847713],[123.82205200195324,13.068829536437988],[123.8219223022461,13.068550109863338],[123.82171630859375,13.068289756774902],[123.8214569091798,13.067999839782772],[123.8211669921875,13.06768989562994],[123.82089233398449,13.067379951477108],[123.82070159912121,13.06707954406744],[123.82048797607433,13.066860198974553],[123.82026672363281,13.066679954528922],[123.82000732421875,13.066539764404297],[123.81971740722679,13.066419601440487],[123.81942749023438,13.066379547119197],[123.81910705566406,13.066309928894043],[123.81876373291038,13.066160202026367],[123.81832122802734,13.066120147705078],[123.81786346435558,13.06610012054449],[123.81746673583996,13.0660400390625],[123.8171615600586,13.065850257873535],[123.81681823730469,13.065690040588379],[123.81656646728516,13.065469741821232],[123.81640625,13.065259933471737],[123.81623840332031,13.06503963470459],[123.8160629272461,13.064829826355037],[123.81577301025402,13.064869880676326],[123.81529998779297,13.064849853515568],[123.81474304199219,13.064760208129883],[123.81423950195324,13.064530372619629],[123.81379699707054,13.06433010101324],[123.81346130371105,13.064209938049373],[123.81323242187523,13.06410026550293],[123.8130569458009,13.063969612121696],[123.81288146972668,13.063810348510856],[123.81271362304699,13.06354999542242],[123.81250000000011,13.063199996948299],[123.81227111816429,13.06278038024908],[123.81213378906261,13.0623197555542],[123.8119583129884,13.061909675598088],[123.81181335449219,13.061530113220329],[123.81185913085938,13.06110000610363],[123.81218719482422,13.060589790344181],[123.81249237060558,13.060139656066951],[123.81269836425793,13.059659957885685],[123.81304931640636,13.058899879455623],[123.81304931640636,13.05772972106945],[123.81302642822266,13.057319641113338],[123.87352752685558,13.04216003417963]]]}},{"type":"Feature","id":"0500511008","properties":{"name":"Cawit","psgcCode":"0500511008","areaSqKm":3.32,"boundarySource":"GADM","boundaryVersion":"3.6","gadmId":"PHL.5.12.8_1"},"geometry":{"type":"Polygon","coordinates":[[[123.8740005493164,13.121620178222713],[123.87993621826172,13.12277984619152],[123.88263702392578,13.131759643554801],[123.8832015991211,13.141619682312012],[123.88294219970703,13.1416597366333],[123.88247680664074,13.141699790954533],[123.88207244873047,13.141810417175293],[123.88166809082031,13.14192008972168],[123.88127136230469,13.141989707946834],[123.8808822631836,13.142180442810115],[123.88044738769531,13.142430305480957],[123.88001251220714,13.142809867858887],[123.87954711914062,13.143170356750431],[123.87896728515625,13.143199920654297],[123.87837982177734,13.142990112304744],[123.87786102294922,13.142740249633789],[123.87740325927734,13.142490386962947],[123.8769989013673,13.142219543457088],[123.87658691406261,13.141949653625545],[123.87615966796875,13.141699790954533],[123.87564849853527,13.141500473022461],[123.8751220703125,13.141229629516602],[123.87451171875011,13.141059875488338],[123.87393188476574,13.140839576721191],[123.87342071533203,13.140549659729118],[123.87296295166027,13.140239715576286],[123.87256622314464,13.139849662780875],[123.87226867675781,13.1394300460816],[123.87226104736328,13.139280319213924],[123.87225341796875,13.138950347900334],[123.87217712402355,13.138719558715763],[123.87187194824219,13.138839721679801],[123.87152099609375,13.139019966125488],[123.87114715576172,13.138950347900334],[123.87074279785156,13.138899803161621],[123.87027740478527,13.13891983032238],[123.86984252929688,13.139049530029354],[123.86942291259766,13.139200210571346],[123.86903381347656,13.13936996459961],[123.8686294555664,13.139439582824764],[123.8682098388673,13.139419555664006],[123.86779022216808,13.139320373535213],[123.86739349365257,13.139160156250057],[123.86699676513672,13.138959884643668],[123.86662292480469,13.138689994812125],[123.86617279052734,13.138400077819824],[123.86570739746105,13.138070106506461],[123.8652114868164,13.137709617614746],[123.86475372314464,13.137310028076229],[123.86434173584007,13.13687992095953],[123.86396789550804,13.136469841003418],[123.86358642578148,13.136119842529297],[123.86319732666038,13.135809898376465],[123.86284637451183,13.135439872741813],[123.86261749267578,13.134960174560547],[123.8624267578125,13.134420394897404],[123.86219787597656,13.133870124816895],[123.86192321777355,13.133310317993221],[123.86167907714866,13.132760047912711],[123.86150360107433,13.13224983215332],[123.86134338378918,13.131770133972225],[123.86134338378918,13.131199836730957],[123.86131286621105,13.13062953948969],[123.86132049560558,13.130089759826774],[123.86155700683605,13.129619598388672],[123.86164855957031,13.129150390625],[123.86168670654308,13.12866020202648],[123.86181640625,13.128160476684627],[123.86197662353516,13.127630233764705],[123.86219024658203,13.12726974487316],[123.86225891113293,13.127149581909293],[123.86263275146507,13.126790046691895],[123.8630065917971,13.126689910888786],[123.86337280273438,13.126749992370605],[123.86364746093761,13.126999855041618],[123.86390686035156,13.127289772033691],[123.86416625976574,13.127639770507812],[123.86428833007812,13.127889633178825],[123.86446380615234,13.128239631652946],[123.86467742919922,13.12886047363287],[123.86488342285156,13.128999710083008],[123.86517333984386,13.128999710083008],[123.86517333984386,13.128840446472168],[123.86549377441429,13.129139900207576],[123.86580657958984,13.129949569702205],[123.86717987060547,13.131090164184513],[123.86834716796898,13.131170272827092],[123.86966705322266,13.130069732666072],[123.8720703125,13.129079818725529],[123.87373352050793,13.128000259399528],[123.87403106689453,13.126680374145621],[123.87355804443371,13.124139785766658],[123.8740005493164,13.121620178222713]]]}},{"type":"Feature","id":"0500511009","properties":{"name":"Holugan","psgcCode":"0500511009","areaSqKm":2.38,"boundarySource":"GADM","boundaryVersion":"3.6","gadmId":"PHL.5.12.9_1"},"geometry":{"type":"Polygon","coordinates":[[[123.90039062500023,13.119709968566838],[123.90827941894543,13.125169754028263],[123.90968322753906,13.126130104064941],[123.90933227539062,13.12633037567133],[123.90918731689464,13.12633037567133],[123.9089126586914,13.126199722290096],[123.90827941894543,13.126199722290096],[123.90814208984375,13.126259803772086],[123.90807342529308,13.126540184021053],[123.90807342529308,13.127019882202148],[123.90825653076183,13.127809524536246],[123.90815734863281,13.128319740295467],[123.90828704833996,13.128809928893986],[123.90833282470703,13.129340171813965],[123.90834045410156,13.12985992431652],[123.90833282470703,13.130379676818904],[123.90825653076183,13.130869865417594],[123.90818786621094,13.13115024566656],[123.90814208984375,13.13131046295166],[123.90827941894543,13.132280349731445],[123.90827941894543,13.132829666137695],[123.90841674804699,13.133520126342773],[123.90841674804699,13.134070396423283],[123.90827941894543,13.135580062866211],[123.90823364257824,13.135860443115348],[123.90828704833996,13.136509895324707],[123.90838623046875,13.136819839477539],[123.9082717895509,13.137960433960018],[123.90812683105469,13.1383695602417],[123.90798950195312,13.139060020446777],[123.9075698852539,13.139739990234432],[123.90685272216797,13.140439987182674],[123.90630340576195,13.14097976684576],[123.90560913085949,13.141260147094727],[123.9047622680664,13.141260147094727],[123.90392303466797,13.141389846801701],[123.90308380126964,13.141389846801701],[123.90165710449219,13.141099929809627],[123.90133666992188,13.140749931335506],[123.90096282959007,13.14048957824707],[123.90061950683605,13.14025020599371],[123.90028381347656,13.140069961547852],[123.89988708496105,13.140069961547852],[123.89958190917969,13.139980316162166],[123.89933013916016,13.139869689941406],[123.89910125732433,13.139749526977596],[123.89884185791016,13.13971996307373],[123.89851379394543,13.139677047729549],[123.89900970458984,13.139490127563477],[123.8986587524414,13.137200355529785],[123.8987503051759,13.136440277099723],[123.89837646484375,13.135160446167106],[123.8979187011721,13.135109901428223],[123.89762878417969,13.134240150451717],[123.89713287353516,13.133709907531795],[123.89646911621094,13.133850097656364],[123.8956069946289,13.132010459899902],[123.89485931396507,13.130229949951172],[123.89588928222668,13.128840446472168],[123.89659118652355,13.128259658813477],[123.89758300781261,13.126689910888786],[123.89775848388683,13.126649856567496],[123.89785766601562,13.125189781189022],[123.89927673339855,13.123539924621582],[123.89959716796875,13.123089790344352],[123.89958190917969,13.12279987335205],[123.90007781982433,13.121040344238338],[123.90039062500023,13.119709968566838]]]}},{"type":"Feature","id":"0500511010","properties":{"name":"It-Ba","psgcCode":"0500511010","areaSqKm":1.39,"boundarySource":"GADM","boundaryVersion":"3.6","gadmId":"PHL.5.12.10_1"},"geometry":{"type":"Polygon","coordinates":[[[123.87143707275402,13.115550041198787],[123.8740005493164,13.121620178222713],[123.87355804443371,13.124139785766658],[123.87403106689453,13.126680374145621],[123.87373352050793,13.128000259399528],[123.8720703125,13.129079818725529],[123.86966705322266,13.130069732666072],[123.86834716796898,13.131170272827092],[123.86717987060547,13.131090164184513],[123.86580657958984,13.129949569702205],[123.86549377441429,13.129139900207576],[123.86517333984386,13.128840446472168],[123.86517333984386,13.12858963012701],[123.86537170410168,13.12831020355236],[123.86551666259777,13.12831020355236],[123.86607360839855,13.128450393676758],[123.86628723144543,13.12858963012701],[123.86649322509777,13.128789901733455],[123.86678314208984,13.128930091858024],[123.86698913574219,13.128930091858024],[123.86705780029308,13.12866020202648],[123.86705780029308,13.128109931945744],[123.86698913574219,13.127699851989803],[123.86670684814464,13.127420425415153],[123.86641693115234,13.127209663391113],[123.8659896850586,13.127140045166016],[123.86559295654297,13.127079963684139],[123.86502075195312,13.127079963684139],[123.86475372314464,13.126870155334416],[123.86432647705078,13.12658977508545],[123.86398315429699,13.126110076904354],[123.86383056640636,13.1254301071167],[123.86403656005871,13.124259948730526],[123.86432647705078,13.124119758605957],[123.86472320556663,13.124119758605957],[123.86480712890625,13.124119758605957],[123.86502075195312,13.123709678650016],[123.86502075195312,13.123020172119197],[123.86460113525402,13.122540473938102],[123.8641815185548,13.121990203857422],[123.86347961425781,13.12096023559576],[123.86271667480469,13.11970043182373],[123.86264038085949,13.119580268859863],[123.87143707275402,13.115550041198787]]]}},{"type":"Feature","id":"0500511011","properties":{"name":"Malobago","psgcCode":"0500511011","areaSqKm":4.15,"boundarySource":"GADM","boundaryVersion":"3.6","gadmId":"PHL.5.12.11_1"},"geometry":{"type":"Polygon","coordinates":[[[123.84532928466808,13.084989547729606],[123.84335327148438,13.08654975891119],[123.84194946289062,13.087120056152457],[123.83834838867188,13.08932971954357],[123.8381118774414,13.08878040313732],[123.83778381347656,13.088020324707088],[123.83751678466808,13.08743000030529],[123.83696746826172,13.086950302124023],[123.83654022216808,13.08660984039301],[123.83648681640625,13.086540222168082],[123.83618927001964,13.08611965179449],[123.83612060546898,13.08551025390625],[123.83612060546898,13.085049629211426],[123.83612060546898,13.083990097045955],[123.83605194091797,13.083439826965446],[123.83589935302734,13.083200454711857],[123.83570098876953,13.082889556884766],[123.83528137207031,13.082340240478516],[123.834716796875,13.081930160522575],[123.83409118652355,13.08158969879156],[123.833740234375,13.081450462341309],[123.8326187133789,13.080559730529785],[123.83184814453125,13.078969955444336],[123.83009338378906,13.076910018920955],[123.8287582397461,13.075949668884277],[123.8272933959961,13.075400352478084],[123.8263168334961,13.074830055236816],[123.82626342773449,13.07456970214838],[123.82595825195312,13.074419975280875],[123.82560729980469,13.074250221252441],[123.82520294189453,13.074110031128043],[123.8248062133789,13.07388019561779],[123.82447814941429,13.073630332946777],[123.82492828369152,13.073829650878906],[123.85674285888683,13.061759948730582],[123.85202026367199,13.070449829101562],[123.84999084472656,13.07299995422369],[123.84880828857422,13.07583999633789],[123.84822845458984,13.077910423278865],[123.84654235839844,13.07913970947277],[123.84628295898449,13.080329895019531],[123.84664916992199,13.081250190734863],[123.84610748291027,13.08191967010498],[123.84565734863304,13.082949638366756],[123.84532928466808,13.084989547729606]]]}},{"type":"Feature","id":"0500511012","properties":{"name":"Manumbalay","psgcCode":"0500511012","areaSqKm":10.88,"boundarySource":"GADM","boundaryVersion":"3.6","gadmId":"PHL.5.12.12_1"},"geometry":{"type":"Polygon","coordinates":[[[123.84532928466808,13.084989547729606],[123.84565734863304,13.082949638366756],[123.84610748291027,13.08191967010498],[123.84664916992199,13.081250190734863],[123.84628295898449,13.080329895019531],[123.84654235839844,13.07913970947277],[123.84822845458984,13.077910423278865],[123.84880828857422,13.07583999633789],[123.84999084472656,13.07299995422369],[123.85202026367199,13.070449829101562],[123.85674285888683,13.061759948730582],[123.88410186767578,13.052260398864746],[123.88279724121094,13.05504035949707],[123.88229370117199,13.056309700012264],[123.88037872314464,13.058039665222282],[123.8780975341798,13.060970306396484],[123.87568664550781,13.063070297241325],[123.87432098388683,13.065380096435547],[123.87254333496116,13.065870285034237],[123.86921691894531,13.067899703979492],[123.86827850341797,13.069999694824162],[123.86817932128918,13.072199821472168],[123.86840057373058,13.07376956939703],[123.86760711669933,13.075969696045036],[123.86788940429688,13.078789710998478],[123.86839294433605,13.082050323486385],[123.86844635009766,13.08405971527111],[123.86852264404297,13.087949752807617],[123.86775970458984,13.089759826660213],[123.8685989379884,13.091320037841797],[123.86869812011719,13.09311962127697],[123.86772155761719,13.097100257873478],[123.86802673339855,13.098199844360408],[123.86775970458984,13.099749565124569],[123.86786651611328,13.101989746093864],[123.86727142333996,13.10346984863287],[123.86853790283226,13.10591983795166],[123.86208343505871,13.119159698486328],[123.86264038085949,13.119580268859863],[123.86109924316429,13.11890029907238],[123.85984039306652,13.118490219116268],[123.85946655273438,13.117799758911133],[123.8593521118164,13.11742973327648],[123.85923767089855,13.11707973480219],[123.85910034179688,13.11633014678955],[123.85903930664074,13.115679740905762],[123.85925292968761,13.115220069885197],[123.85941314697277,13.114769935607967],[123.85945129394543,13.114279747009277],[123.85945129394543,13.113769531250057],[123.85945129394543,13.113280296325627],[123.85939025878929,13.112830162048397],[123.85916900634766,13.11244964599615],[123.85890197753906,13.112070083618164],[123.85862731933616,13.111700057983512],[123.85836791992188,13.111359596252555],[123.85809326171886,13.111049652099723],[123.8578109741211,13.110739707946891],[123.85752868652355,13.110420227050895],[123.85723876953125,13.110099792480469],[123.85695648193371,13.10984039306652],[123.85672760009777,13.109620094299373],[123.85652160644554,13.109419822692985],[123.8563232421875,13.109239578247127],[123.85603332519531,13.109080314636287],[123.855712890625,13.10883998870861],[123.85546875,13.108730316162166],[123.8553237915039,13.108670234680176],[123.85494232177734,13.108530044555778],[123.8546600341798,13.108369827270621],[123.85440826416016,13.108300209045467],[123.85417938232422,13.108220100402946],[123.8537826538086,13.108189582824764],[123.85344696044922,13.108030319213924],[123.85195159912132,13.107930183410645],[123.85926818847668,13.100870132446346],[123.85777282714844,13.095210075378532],[123.85517883300781,13.089150428771973],[123.85337829589844,13.086970329284725],[123.84532928466808,13.084989547729606]]]}},{"type":"Feature","id":"0500511013","properties":{"name":"Nagotgot","psgcCode":"0500511013","areaSqKm":6.23,"boundarySource":"GADM","boundaryVersion":"3.6","gadmId":"PHL.5.12.13_1"},"geometry":{"type":"Polygon","coordinates":[[[123.91047668457031,13.047459602355957],[123.91272735595703,13.05171012878418],[123.91374969482445,13.0548095703125],[123.9139862060548,13.055890083313045],[123.91465759277344,13.058540344238395],[123.91551208496105,13.0621595382691],[123.91609954833996,13.0649995803833],[123.91719818115246,13.068909645080566],[123.91754150390625,13.072730064392147],[123.91857147216808,13.0787096023559],[123.91755676269554,13.085909843444767],[123.91649627685547,13.08788013458252],[123.91758728027355,13.089349746704102],[123.9177703857423,13.090869903564567],[123.91751098632812,13.092289924621582],[123.91590118408214,13.094820022583121],[123.91531372070324,13.09605979919445],[123.91423797607422,13.098190307617301],[123.91419982910168,13.099499702453556],[123.91383361816406,13.100560188293514],[123.91429138183594,13.101460456848145],[123.91409301757812,13.102149963378963],[123.91417694091808,13.103019714355469],[123.91454315185558,13.10391998291027],[123.9140090942384,13.10531044006359],[123.9137191772461,13.106590270996207],[123.91293334960938,13.107330322265739],[123.9133987426759,13.107870101928825],[123.90936279296898,13.108499526977596],[123.90675354003918,13.109279632568416],[123.90528869628906,13.108400344848633],[123.90416717529297,13.107839584350643],[123.90396881103516,13.107110023498592],[123.90248870849632,13.105830192565975],[123.90223693847656,13.1048202514649],[123.90316009521484,13.102540016174373],[123.90273284912121,13.100359916687125],[123.90332794189464,13.098130226135254],[123.90350341796886,13.095899581909123],[123.904541015625,13.09391975402832],[123.9051971435548,13.09249019622797],[123.90646362304688,13.090470314025879],[123.90628814697266,13.089349746704102],[123.90717315673828,13.088279724121207],[123.90791320800781,13.086919784545842],[123.90849304199219,13.0862197875976],[123.90907287597656,13.084799766540641],[123.9094467163086,13.083919525146541],[123.91020202636719,13.08285999298107],[123.91021728515625,13.082099914550838],[123.90989685058594,13.081049919128475],[123.91047668457031,13.079090118408203],[123.91049194335938,13.077710151672477],[123.91027069091797,13.075719833374023],[123.91011810302757,13.074049949645996],[123.91049957275413,13.071249961853084],[123.9099807739259,13.07089996337902],[123.909912109375,13.069560050964355],[123.90920257568371,13.068510055542049],[123.90843200683605,13.06713962554943],[123.90804290771496,13.065950393676815],[123.90728759765636,13.064689636230469],[123.90619659423828,13.06394004821783],[123.9066162109375,13.062589645385799],[123.90603637695312,13.061470031738281],[123.9061737060548,13.06035041809082],[123.90728759765636,13.059430122375431],[123.90805816650402,13.059280395507926],[123.90892791748047,13.058839797973633],[123.9087829589846,13.058259963989258],[123.90888977050781,13.056909561157227],[123.90949249267578,13.055890083313045],[123.90924072265636,13.054160118103027],[123.90873718261719,13.053250312805233],[123.90801239013672,13.051699638366756],[123.90780639648438,13.050760269165153],[123.90808105468761,13.049420356750545],[123.91047668457031,13.047459602355957]]]}},{"type":"Feature","id":"0500511015","properties":{"name":"Pawa","psgcCode":"0500511015","areaSqKm":6.59,"boundarySource":"GADM","boundaryVersion":"3.6","gadmId":"PHL.5.12.14_1"},"geometry":{"type":"Polygon","coordinates":[[[123.90675354003918,13.109279632568416],[123.9068374633789,13.110659599304313],[123.90524291992188,13.110989570617676],[123.90450286865234,13.1118803024292],[123.90455627441406,13.11443042755127],[123.90444183349621,13.115090370178223],[123.90351867675793,13.11643028259283],[123.90225982666016,13.116419792175236],[123.90158843994152,13.117639541626033],[123.90129089355469,13.118530273437557],[123.90039062500023,13.119709968566838],[123.90007781982433,13.121040344238338],[123.89958190917969,13.12279987335205],[123.89959716796875,13.123089790344352],[123.89927673339855,13.123539924621582],[123.89785766601562,13.125189781189022],[123.89775848388683,13.126649856567496],[123.89758300781261,13.126689910888786],[123.89659118652355,13.128259658813477],[123.89588928222668,13.128840446472168],[123.89485931396507,13.130229949951172],[123.8956069946289,13.132010459899902],[123.89646911621094,13.133850097656364],[123.89713287353516,13.133709907531795],[123.89762878417969,13.134240150451717],[123.8979187011721,13.135109901428223],[123.89837646484375,13.135160446167106],[123.8987503051759,13.136440277099723],[123.8986587524414,13.137200355529785],[123.89900970458984,13.139490127563477],[123.89851379394543,13.139677047729549],[123.89826965332031,13.139769554138297],[123.89817047119152,13.139809608459586],[123.8979187011721,13.139940261840877],[123.89753723144554,13.140060424804688],[123.89717864990246,13.14027023315441],[123.8967971801759,13.140480041503963],[123.89642333984386,13.14072036743164],[123.8960418701173,13.140959739685059],[123.89568328857433,13.141229629516602],[123.89524841308616,13.141360282898063],[123.89479064941406,13.141389846801701],[123.89434814453136,13.141389846801701],[123.89392089843761,13.141389846801701],[123.89351654052734,13.141389846801701],[123.8933563232423,13.141389846801701],[123.89309692382812,13.141389846801701],[123.8926773071289,13.141389846801701],[123.89227294921875,13.14142990112299],[123.89189910888672,13.141570091247559],[123.89153289794922,13.141699790954533],[123.89116668701172,13.141869544982967],[123.89098358154297,13.14192008972168],[123.89073944091808,13.141969680786133],[123.89028930664085,13.142120361328125],[123.88976287841808,13.142279624938965],[123.88922119140625,13.142470359802246],[123.88863372802746,13.142620086669922],[123.8880081176759,13.142789840698356],[123.88741302490234,13.14295959472662],[123.88677215576172,13.142999649047908],[123.88617706298828,13.14282035827631],[123.88568878173828,13.142519950866813],[123.8852767944336,13.14221000671398],[123.88490295410156,13.141900062561149],[123.88440704345714,13.141670227050895],[123.88388061523438,13.141500473022461],[123.8833999633789,13.141590118408317],[123.8832015991211,13.141619682312012],[123.88263702392578,13.131759643554801],[123.87993621826172,13.12277984619152],[123.8740005493164,13.121620178222713],[123.87471771240246,13.120120048523006],[123.87603759765636,13.119339942932186],[123.8774185180664,13.119429588317871],[123.87882995605469,13.119170188903922],[123.88108825683594,13.117460250854492],[123.88230895996105,13.11746978759777],[123.88343811035168,13.116519927978572],[123.88469696044922,13.115639686584473],[123.88661193847656,13.115050315856934],[123.88777160644531,13.114279747009277],[123.89012908935558,13.113010406494084],[123.89234924316406,13.113260269165096],[123.89359283447277,13.112859725952092],[123.89537048339844,13.111140251159668],[123.89671325683594,13.109640121459961],[123.89852905273449,13.10795974731451],[123.900146484375,13.107270240783691],[123.90132904052734,13.107099533081168],[123.90416717529297,13.107839584350643],[123.90528869628906,13.108400344848633],[123.90675354003918,13.109279632568416]]]}},{"type":"Feature","id":"0500511018","properties":{"name":"Tinapian","psgcCode":"0500511018","areaSqKm":5.21,"boundarySource":"GADM","boundaryVersion":"3.6","gadmId":"PHL.5.12.15_1"},"geometry":{"type":"Polygon","coordinates":[[[123.83834838867188,13.08932971954357],[123.84194946289062,13.087120056152457],[123.84335327148438,13.08654975891119],[123.84532928466808,13.084989547729606],[123.85337829589844,13.086970329284725],[123.85517883300781,13.089150428771973],[123.85777282714844,13.095210075378532],[123.85926818847668,13.100870132446346],[123.85195159912132,13.107930183410645],[123.85344696044922,13.108030319213924],[123.8537826538086,13.108189582824764],[123.85346221923828,13.108289718627873],[123.85302734375,13.108329772949162],[123.85254669189464,13.108340263366756],[123.85205078125,13.10838985443121],[123.85160064697277,13.108570098877067],[123.85115051269531,13.108759880066032],[123.85075378417969,13.108989715576286],[123.850341796875,13.109230041503963],[123.84996795654297,13.109510421752987],[123.849609375,13.109809875488395],[123.84912109375011,13.110050201416072],[123.84854125976574,13.110239982605037],[123.84822082519531,13.110260009765625],[123.8478775024414,13.110280036926326],[123.84718322753929,13.110320091247615],[123.84652709960938,13.1104097366333],[123.84587860107433,13.110589981079158],[123.8452835083009,13.11083984375],[123.84472656250011,13.111109733581543],[123.8442611694336,13.111370086669979],[123.84381103515636,13.111579895019474],[123.84332275390625,13.111689567565918],[123.84282684326183,13.111829757690487],[123.84226226806652,13.1118803024292],[123.84174346923828,13.111749649047908],[123.84124755859375,13.111610412597656],[123.84081268310547,13.111439704895076],[123.84033966064464,13.111379623413086],[123.83984375,13.1112899780274],[123.83936309814476,13.1110000610351],[123.83895111083984,13.110580444336051],[123.83869171142578,13.110050201416072],[123.83856201171875,13.109459877014274],[123.83838653564453,13.10890007019043],[123.83838653564453,13.108340263366756],[123.83854675292969,13.107850074768066],[123.83862304687511,13.107359886169377],[123.83869934082031,13.106889724731445],[123.83885192871105,13.106459617614746],[123.8388900756836,13.106010437011832],[123.8388900756836,13.105549812317008],[123.8388900756836,13.105110168457031],[123.8388900756836,13.10468959808344],[123.8388671875,13.10431003570568],[123.83872985839844,13.104000091552848],[123.8385009765625,13.103690147400016],[123.83820343017578,13.103380203247184],[123.83817291259766,13.102849960327205],[123.83804321289074,13.102419853210506],[123.8379135131836,13.10219955444336],[123.83759307861328,13.101730346679688],[123.83759307861328,13.101650238037166],[123.83759307861328,13.101110458374023],[123.83760833740234,13.101030349731502],[123.83773803710938,13.100419998168945],[123.83793640136719,13.099869728088436],[123.83793640136719,13.099459648132324],[123.83780670166016,13.099320411682186],[123.83759307861328,13.099189758300724],[123.83717346191406,13.098910331726074],[123.83674621582043,13.09856986999506],[123.83632659912121,13.098360061645565],[123.83593750000011,13.098099708557129],[123.83563232421875,13.097949981689396],[123.83521270751964,13.097809791564998],[123.83528137207031,13.097399711608887],[123.83541870117199,13.096989631652946],[123.83563232421875,13.096779823303223],[123.8359832763673,13.09650993347168],[123.83647155761719,13.096159934997559],[123.83661651611328,13.095890045166016],[123.83674621582043,13.095399856567496],[123.83704376220703,13.095060348510799],[123.83751678466808,13.094650268554688],[123.8381576538086,13.094030380249023],[123.83820343017578,13.093930244445914],[123.83870697021484,13.092929840088004],[123.83878326416038,13.091620445251522],[123.83878326416038,13.091480255126953],[123.83878326416038,13.090319633483887],[123.83834838867188,13.08932971954357]]]}}]}
